CCSDS_OMM_VERS = 2.0
CREATION_DATE  = 
ORIGINATOR     = 

OBJECT_NAME    = TITAN 4B R/B
OBJECT_ID      = 2000-047B
CENTER_NAME    = EARTH
REF_FRAME      = TEME
TIME_SYSTEM    = UTC
MEAN_ELEMENT_THEORY = SGP/SGP4

EPOCH          = 2025-11-04T06:54:56.406240
MEAN_MOTION    = 15.08351960
ECCENTRICITY   = .00426609
INCLINATION    = 67.9920
RA_OF_ASC_NODE = 32.8132
ARG_OF_PERICENTER = 188.9599
MEAN_ANOMALY   = 171.0794

EPHEMERIS_TYPE = 0
CLASSIFICATION_TYPE = U
NORAD_CAT_ID   = 26474
ELEMENT_SET_NO = 999
REV_AT_EPOCH   = 37399
BSTAR          = .31507763E-3
MEAN_MOTION_DOT = .4876E-4
MEAN_MOTION_DDOT = 0

CCSDS_OMM_VERS = 2.0
CREATION_DATE  = 
ORIGINATOR     = 

OBJECT_NAME    = ENVISAT
OBJECT_ID      = 2002-009A
CENTER_NAME    = EARTH
REF_FRAME      = TEME
TIME_SYSTEM    = UTC
MEAN_ELEMENT_THEORY = SGP/SGP4

EPOCH          = 2025-11-04T07:49:28.694784
MEAN_MOTION    = 14.38976987
ECCENTRICITY   = .00013509
INCLINATION    = 98.3535
RA_OF_ASC_NODE = 260.0532
ARG_OF_PERICENTER = 84.2800
MEAN_ANOMALY   = 37.1002

EPHEMERIS_TYPE = 0
CLASSIFICATION_TYPE = U
NORAD_CAT_ID   = 27386
ELEMENT_SET_NO = 999
REV_AT_EPOCH   = 24114
BSTAR          = .65433014E-4
MEAN_MOTION_DOT = .159E-5
MEAN_MOTION_DDOT = 0

CCSDS_OMM_VERS = 2.0
CREATION_DATE  = 
ORIGINATOR     = 

OBJECT_NAME    = IDEFIX & ARIANE 42P R/B
OBJECT_ID      = 2002-021B
CENTER_NAME    = EARTH
REF_FRAME      = TEME
TIME_SYSTEM    = UTC
MEAN_ELEMENT_THEORY = SGP/SGP4

EPOCH          = 2025-11-04T06:20:54.348288
MEAN_MOTION    = 14.30906375
ECCENTRICITY   = .00113728
INCLINATION    = 98.5725
RA_OF_ASC_NODE = 243.4671
ARG_OF_PERICENTER = 191.6030
MEAN_ANOMALY   = 168.4893

EPHEMERIS_TYPE = 0
CLASSIFICATION_TYPE = U
NORAD_CAT_ID   = 27422
ELEMENT_SET_NO = 999
REV_AT_EPOCH   = 22608
BSTAR          = .15149736E-3
MEAN_MOTION_DOT = .354E-5
MEAN_MOTION_DDOT = 0

CCSDS_OMM_VERS = 2.0
CREATION_DATE  = 
ORIGINATOR     = 

OBJECT_NAME    = AQUA
OBJECT_ID      = 2002-022A
CENTER_NAME    = EARTH
REF_FRAME      = TEME
TIME_SYSTEM    = UTC
MEAN_ELEMENT_THEORY = SGP/SGP4

EPOCH          = 2025-11-04T07:07:28.843968
MEAN_MOTION    = 14.61665358
ECCENTRICITY   = .00011744
INCLINATION    = 98.3977
RA_OF_ASC_NODE = 268.5669
ARG_OF_PERICENTER = 49.3926
MEAN_ANOMALY   = 59.2047

EPHEMERIS_TYPE = 0
CLASSIFICATION_TYPE = U
NORAD_CAT_ID   = 27424
ELEMENT_SET_NO = 999
REV_AT_EPOCH   = 25041
BSTAR          = .26767064E-3
MEAN_MOTION_DOT = .1283E-4
MEAN_MOTION_DDOT = 0

CCSDS_OMM_VERS = 2.0
CREATION_DATE  = 
ORIGINATOR     = 

OBJECT_NAME    = CZ-4B R/B
OBJECT_ID      = 2002-024C
CENTER_NAME    = EARTH
REF_FRAME      = TEME
TIME_SYSTEM    = UTC
MEAN_ELEMENT_THEORY = SGP/SGP4

EPOCH          = 2025-11-04T04:00:43.058592
MEAN_MOTION    = 14.14515726
ECCENTRICITY   = .00504746
INCLINATION    = 98.9061
RA_OF_ASC_NODE = 357.0624
ARG_OF_PERICENTER = 20.6259
MEAN_ANOMALY   = 46.9159

EPHEMERIS_TYPE = 0
CLASSIFICATION_TYPE = U
NORAD_CAT_ID   = 27432
ELEMENT_SET_NO = 999
REV_AT_EPOCH   = 21149
BSTAR          = .55366953E-4
MEAN_MOTION_DOT = .63E-6
MEAN_MOTION_DDOT = 0

CCSDS_OMM_VERS = 2.0
CREATION_DATE  = 
ORIGINATOR     = 

OBJECT_NAME    = MIDORI II (ADEOS-II)
OBJECT_ID      = 2002-056A
CENTER_NAME    = EARTH
REF_FRAME      = TEME
TIME_SYSTEM    = UTC
MEAN_ELEMENT_THEORY = SGP/SGP4

EPOCH          = 2025-11-04T06:43:23.222496
MEAN_MOTION    = 14.29164467
ECCENTRICITY   = .00016993
INCLINATION    = 98.7572
RA_OF_ASC_NODE = 261.0476
ARG_OF_PERICENTER = 46.2741
MEAN_ANOMALY   = 313.8581

EPHEMERIS_TYPE = 0
CLASSIFICATION_TYPE = U
NORAD_CAT_ID   = 27597
ELEMENT_SET_NO = 999
REV_AT_EPOCH   = 19238
BSTAR          = .15539113E-3
MEAN_MOTION_DOT = .349E-5
MEAN_MOTION_DDOT = 0

CCSDS_OMM_VERS = 2.0
CREATION_DATE  = 
ORIGINATOR     = 

OBJECT_NAME    = H-2A R/B
OBJECT_ID      = 2002-056E
CENTER_NAME    = EARTH
REF_FRAME      = TEME
TIME_SYSTEM    = UTC
MEAN_ELEMENT_THEORY = SGP/SGP4

EPOCH          = 2025-11-04T03:29:41.874720
MEAN_MOTION    = 14.33633750
ECCENTRICITY   = .00703106
INCLINATION    = 98.3004
RA_OF_ASC_NODE = 268.4520
ARG_OF_PERICENTER = 174.7318
MEAN_ANOMALY   = 195.8472

EPHEMERIS_TYPE = 0
CLASSIFICATION_TYPE = U
NORAD_CAT_ID   = 27601
ELEMENT_SET_NO = 999
REV_AT_EPOCH   = 19612
BSTAR          = .13361975E-3
MEAN_MOTION_DOT = .339E-5
MEAN_MOTION_DDOT = 0

CCSDS_OMM_VERS = 2.0
CREATION_DATE  = 
ORIGINATOR     = 

OBJECT_NAME    = CZ-4B R/B
OBJECT_ID      = 2003-049C
CENTER_NAME    = EARTH
REF_FRAME      = TEME
TIME_SYSTEM    = UTC
MEAN_ELEMENT_THEORY = SGP/SGP4

EPOCH          = 2025-11-04T05:16:03.996480
MEAN_MOTION    = 14.54853247
ECCENTRICITY   = .00471046
INCLINATION    = 98.6761
RA_OF_ASC_NODE = 293.3339
ARG_OF_PERICENTER = 254.3648
MEAN_ANOMALY   = 105.2347

EPHEMERIS_TYPE = 0
CLASSIFICATION_TYPE = U
NORAD_CAT_ID   = 28059
ELEMENT_SET_NO = 999
REV_AT_EPOCH   = 16835
BSTAR          = .13166787E-3
MEAN_MOTION_DOT = .522E-5
MEAN_MOTION_DDOT = 0

CCSDS_OMM_VERS = 2.0
CREATION_DATE  = 
ORIGINATOR     = 

OBJECT_NAME    = CZ-2C R/B
OBJECT_ID      = 2004-012C
CENTER_NAME    = EARTH
REF_FRAME      = TEME
TIME_SYSTEM    = UTC
MEAN_ELEMENT_THEORY = SGP/SGP4

EPOCH          = 2025-11-04T02:21:40.676544
MEAN_MOTION    = 15.52056865
ECCENTRICITY   = .00202899
INCLINATION    = 97.7502
RA_OF_ASC_NODE = 357.6215
ARG_OF_PERICENTER = 54.6589
MEAN_ANOMALY   = 305.6555

EPHEMERIS_TYPE = 0
CLASSIFICATION_TYPE = U
NORAD_CAT_ID   = 28222
ELEMENT_SET_NO = 999
REV_AT_EPOCH   = 18472
BSTAR          = .57047671E-3
MEAN_MOTION_DOT = .3468E-3
MEAN_MOTION_DDOT = 0

CCSDS_OMM_VERS = 2.0
CREATION_DATE  = 
ORIGINATOR     = 

OBJECT_NAME    = SL-16 R/B
OBJECT_ID      = 2004-021B
CENTER_NAME    = EARTH
REF_FRAME      = TEME
TIME_SYSTEM    = UTC
MEAN_ELEMENT_THEORY = SGP/SGP4

EPOCH          = 2025-11-04T05:22:38.199072
MEAN_MOTION    = 14.14569543
ECCENTRICITY   = .0006948
INCLINATION    = 70.9972
RA_OF_ASC_NODE = 135.7904
ARG_OF_PERICENTER = 241.1595
MEAN_ANOMALY   = 118.8830

EPHEMERIS_TYPE = 0
CLASSIFICATION_TYPE = U
NORAD_CAT_ID   = 28353
ELEMENT_SET_NO = 999
REV_AT_EPOCH   = 10509
BSTAR          = -.18535861E-4
MEAN_MOTION_DOT = -.83E-6
MEAN_MOTION_DDOT = 0

CCSDS_OMM_VERS = 2.0
CREATION_DATE  = 
ORIGINATOR     = 

OBJECT_NAME    = CZ-4B R/B
OBJECT_ID      = 2004-035C
CENTER_NAME    = EARTH
REF_FRAME      = TEME
TIME_SYSTEM    = UTC
MEAN_ELEMENT_THEORY = SGP/SGP4

EPOCH          = 2025-11-04T02:14:32.896320
MEAN_MOTION    = 15.26464149
ECCENTRICITY   = .00354981
INCLINATION    = 97.3667
RA_OF_ASC_NODE = 338.9680
ARG_OF_PERICENTER = 55.5351
MEAN_ANOMALY   = 304.9232

EPHEMERIS_TYPE = 0
CLASSIFICATION_TYPE = U
NORAD_CAT_ID   = 28415
ELEMENT_SET_NO = 999
REV_AT_EPOCH   = 16073
BSTAR          = .34432636E-3
MEAN_MOTION_DOT = .9071E-4
MEAN_MOTION_DDOT = 0

CCSDS_OMM_VERS = 2.0
CREATION_DATE  = 
ORIGINATOR     = 

OBJECT_NAME    = CZ-2C R/B
OBJECT_ID      = 2004-046B
CENTER_NAME    = EARTH
REF_FRAME      = TEME
TIME_SYSTEM    = UTC
MEAN_ELEMENT_THEORY = SGP/SGP4

EPOCH          = 2025-11-04T00:59:57.921504
MEAN_MOTION    = 14.26914526
ECCENTRICITY   = .01397723
INCLINATION    = 98.1950
RA_OF_ASC_NODE = 225.8325
ARG_OF_PERICENTER = 165.9400
MEAN_ANOMALY   = 194.5736

EPHEMERIS_TYPE = 0
CLASSIFICATION_TYPE = U
NORAD_CAT_ID   = 28480
ELEMENT_SET_NO = 999
REV_AT_EPOCH   = 9058
BSTAR          = .87304587E-4
MEAN_MOTION_DOT = .195E-5
MEAN_MOTION_DDOT = 0

