TITAN 4B R/B            
1 26474U 00047B   25308.28815285  .00004876  00000+0  31508-3 0  9995
2 26474  67.9920  32.8132 0042660 188.9599 171.0794 15.08351960373992
ENVISAT                 
1 27386U 02009A   25308.32602656  .00000159  00000+0  65433-4 0  9994
2 27386  98.3535 260.0532 0001350  84.2800  37.1002 14.38976987241147
IDEFIX & ARIANE 42P R/B 
1 27422U 02021B   25308.26451792  .00000354  00000+0  15150-3 0  9992
2 27422  98.5725 243.4671 0011372 191.6030 168.4893 14.30906375226081
AQUA                    
1 27424U 02022A   25308.29686162  .00001283  00000+0  26767-3 0  9997
2 27424  98.3977 268.5669 0001174  49.3926  59.2047 14.61665358250416
CZ-4B R/B               
1 27432U 02024C   25308.16716503  .00000063  00000+0  55367-4 0  9991
2 27432  98.9061 357.0624 0050474  20.6259  46.9159 14.14515726211491
MIDORI II (ADEOS-II)    
1 27597U 02056A   25308.28012989  .00000349  00000+0  15539-3 0  9991
2 27597  98.7572 261.0476 0001699  46.2741 313.8581 14.29164467192381
H-2A R/B                
1 27601U 02056E   25308.14562355  .00000339  00000+0  13362-3 0  9990
2 27601  98.3004 268.4520 0070310 174.7318 195.8472 14.33633750196121
CZ-4B R/B               
1 28059U 03049C   25308.21949070  .00000522  00000+0  13167-3 0  9999
2 28059  98.6761 293.3339 0047104 254.3648 105.2347 14.54853247168351
CZ-2C R/B               
1 28222U 04012C   25308.09838746  .00034680  00000+0  57048-3 0  9993
2 28222  97.7502 357.6215 0020289  54.6589 305.6555 15.52056865184729
SL-16 R/B               
1 28353U 04021B   25308.22405323 -.00000083  00000+0 -18536-4 0  9996
2 28353  70.9972 135.7904 0006948 241.1595 118.8830 14.14569543105096
CZ-4B R/B               
1 28415U 04035C   25308.09343630  .00009071  00000+0  34433-3 0  9994
2 28415  97.3667 338.9680 0035498  55.5351 304.9232 15.26464149160732
CZ-2C R/B               
1 28480U 04046B   25308.04164261  .00000195  00000+0  87305-4 0  9999
2 28480  98.1950 225.8325 0139772 165.9400 194.5736 14.26914526 90584
